{
"type": "FeatureCollection",
"name": "xl_002_001_inpx_links",
"crs": { "type": "name", "properties": { "name": "urn:ogc:def:crs:OGC:1.3:CRS84" } },
"features": [
{ "type": "Feature", "properties": { "link_id": "1", "@assumSpeedOncom": "60", "@consVehInDynPot": "false", "@costPerKm": "0", "@desSpeedFact": "1", "@direction": "ALL", "@displayType": "1", "@emergStopDist": "5", "@gradient": "0", "@hasOvtLn": "false", "@isPedArea": "false", "@level": "1", "@linkBehavType": "1", "@linkEvalAct": "true", "@linkEvalSegLen": "10", "@lnChgDist": "200", "@lnChgDistIsPerLn": "false", "@lnChgEvalAct": "true", "@lookAheadDistOvt": "500", "@mesoFollowUpGap": "0", "@mesoSpeed": "50", "@mesoSpeedModel": "VEHICLEBASED", "@name": "", "@netPerfEvalAct": "true", "@no": "1", "@ovtOnlyPT": "false", "@ovtSpeedFact": "1.3", "@showClsfValues": "true", "@showLinkBar": "true", "@showVeh": "true", "@surch1": "0", "@surch2": "0", "@thickness": "0", "@vehDynPotG": "3", "@vehRecAct": "true", "geom_points": "[(-87.88776887235022, 43.077217620032044), (-87.88775175019902, 43.07784572604794), (-87.8877394721373, 43.07829612836459)]", "num_lanes": 1.0, "fromLinkEndPt": null, "toLinkEndPt": null }, "geometry": { "type": "LineString", "coordinates": [ [ -87.887768872350222, 43.077217620032044 ], [ -87.887751750199016, 43.07784572604794 ], [ -87.887739472137298, 43.078296128364592 ] ] } },
{ "type": "Feature", "properties": { "link_id": "2", "@assumSpeedOncom": "60", "@consVehInDynPot": "false", "@costPerKm": "0", "@desSpeedFact": "1", "@direction": "ALL", "@displayType": "1", "@emergStopDist": "5", "@gradient": "0", "@hasOvtLn": "false", "@isPedArea": "false", "@level": "1", "@linkBehavType": "1", "@linkEvalAct": "true", "@linkEvalSegLen": "10", "@lnChgDist": "200", "@lnChgDistIsPerLn": "false", "@lnChgEvalAct": "true", "@lookAheadDistOvt": "500", "@mesoFollowUpGap": "0", "@mesoSpeed": "50", "@mesoSpeedModel": "VEHICLEBASED", "@name": "", "@netPerfEvalAct": "true", "@no": "2", "@ovtOnlyPT": "false", "@ovtSpeedFact": "1.3", "@showClsfValues": "true", "@showLinkBar": "true", "@showVeh": "true", "@surch1": "0", "@surch2": "0", "@thickness": "0", "@vehDynPotG": "3", "@vehRecAct": "true", "geom_points": "[(-87.88777640128475, 43.078296665454076), (-87.88778867934647, 43.07784626314134), (-87.88780580149769, 43.077218157130964)]", "num_lanes": 1.0, "fromLinkEndPt": null, "toLinkEndPt": null }, "geometry": { "type": "LineString", "coordinates": [ [ -87.887776401284754, 43.078296665454076 ], [ -87.887788679346471, 43.077846263141339 ], [ -87.887805801497692, 43.077218157130964 ] ] } },
{ "type": "Feature", "properties": { "link_id": "3", "@assumSpeedOncom": "60", "@consVehInDynPot": "false", "@costPerKm": "0", "@desSpeedFact": "1", "@direction": "ALL", "@displayType": "1", "@emergStopDist": "5", "@gradient": "0", "@hasOvtLn": "false", "@isPedArea": "false", "@level": "1", "@linkBehavType": "1", "@linkEvalAct": "true", "@linkEvalSegLen": "10", "@lnChgDist": "200", "@lnChgDistIsPerLn": "false", "@lnChgEvalAct": "true", "@lookAheadDistOvt": "500", "@mesoFollowUpGap": "0", "@mesoSpeed": "50", "@mesoSpeedModel": "VEHICLEBASED", "@name": "", "@netPerfEvalAct": "true", "@no": "3", "@ovtOnlyPT": "false", "@ovtSpeedFact": "1.3", "@showClsfValues": "true", "@showLinkBar": "true", "@showVeh": "true", "@surch1": "0", "@surch2": "0", "@thickness": "0", "@vehDynPotG": "3", "@vehRecAct": "true", "geom_points": "[(-87.88660182763039, 43.07765522946261), (-87.88839814144153, 43.077651564436955)]", "num_lanes": 1.0, "fromLinkEndPt": null, "toLinkEndPt": null }, "geometry": { "type": "LineString", "coordinates": [ [ -87.886601827630386, 43.077655229462607 ], [ -87.888398141441527, 43.077651564436955 ] ] } },
{ "type": "Feature", "properties": { "link_id": "4", "@assumSpeedOncom": "60", "@consVehInDynPot": "false", "@costPerKm": "0", "@desSpeedFact": "1", "@direction": "ALL", "@displayType": "1", "@emergStopDist": "5", "@gradient": "0", "@hasOvtLn": "false", "@isPedArea": "false", "@level": "1", "@linkBehavType": "1", "@linkEvalAct": "true", "@linkEvalSegLen": "10", "@lnChgDist": "200", "@lnChgDistIsPerLn": "false", "@lnChgEvalAct": "true", "@lookAheadDistOvt": "500", "@mesoFollowUpGap": "0", "@mesoSpeed": "50", "@mesoSpeedModel": "VEHICLEBASED", "@name": "", "@netPerfEvalAct": "true", "@no": "4", "@ovtOnlyPT": "false", "@ovtSpeedFact": "1.3", "@showClsfValues": "true", "@showLinkBar": "true", "@showVeh": "true", "@surch1": "0", "@surch2": "0", "@thickness": "0", "@vehDynPotG": "3", "@vehRecAct": "true", "geom_points": "[(-87.88839803826744, 43.07762458507916), (-87.88660172445628, 43.077628250106436)]", "num_lanes": 1.0, "fromLinkEndPt": null, "toLinkEndPt": null }, "geometry": { "type": "LineString", "coordinates": [ [ -87.888398038267439, 43.077624585079157 ], [ -87.886601724456284, 43.077628250106436 ] ] } },
{ "type": "Feature", "properties": { "link_id": "10000", "@assumSpeedOncom": "60", "@consVehInDynPot": "false", "@costPerKm": "0", "@desSpeedFact": "1", "@direction": "ALL", "@displayType": "1", "@emergStopDist": "5", "@gradient": "0", "@hasOvtLn": "false", "@isPedArea": "false", "@level": null, "@linkBehavType": "1", "@linkEvalAct": "true", "@linkEvalSegLen": "10", "@lnChgDist": "200", "@lnChgDistIsPerLn": "false", "@lnChgEvalAct": "true", "@lookAheadDistOvt": "500", "@mesoFollowUpGap": "0", "@mesoSpeed": "50", "@mesoSpeedModel": "VEHICLEBASED", "@name": "", "@netPerfEvalAct": "true", "@no": "10000", "@ovtOnlyPT": "false", "@ovtSpeedFact": "1.3", "@showClsfValues": "true", "@showLinkBar": "true", "@showVeh": "true", "@surch1": "0", "@surch2": "0", "@thickness": "0", "@vehDynPotG": "3", "@vehRecAct": "true", "geom_points": "[(-87.88775828282384, 43.077606085134846), (-87.8877587024839, 43.0776107481082), (-87.88776015862338, 43.07761530162966), (-87.88776256189092, 43.07761971917443), (-87.88776582293511, 43.07762397421757), (-87.88776985240456, 43.07762804023428), (-87.8877745609479, 43.07763189069965), (-87.8877798592137, 43.077635499088885), (-87.88778565785057, 43.07763883887709), (-87.88779186750716, 43.07764188353947), (-87.88779839883205, 43.07764460655116), (-87.88780516247382, 43.077646981387325), (-87.88781206908112, 43.077648981523105), (-87.88781902930255, 43.07765058043364), (-87.88782595378672, 43.077651751594125), (-87.88783275318222, 43.07765246847965), (-87.88783933813762, 43.0776527045654)]", "num_lanes": null, "fromLinkEndPt": { "@lane": "1 1", "@pos": "43.204047510243164" }, "toLinkEndPt": { "@lane": "3 1", "@pos": "100.51166968079055" } }, "geometry": { "type": "LineString", "coordinates": [ [ -87.887758282823839, 43.077606085134846 ], [ -87.887758702483893, 43.077610748108199 ], [ -87.887760158623379, 43.077615301629663 ], [ -87.887762561890924, 43.077619719174429 ], [ -87.887765822935108, 43.077623974217573 ], [ -87.88776985240456, 43.077628040234281 ], [ -87.887774560947904, 43.077631890699649 ], [ -87.887779859213694, 43.077635499088885 ], [ -87.887785657850571, 43.077638838877093 ], [ -87.887791867507161, 43.077641883539471 ], [ -87.887798398832047, 43.077644606551161 ], [ -87.887805162473825, 43.077646981387325 ], [ -87.887812069081122, 43.077648981523105 ], [ -87.887819029302548, 43.077650580433641 ], [ -87.887825953786717, 43.077651751594125 ], [ -87.887832753182224, 43.077652468479648 ], [ -87.887839338137624, 43.077652704565402 ] ] } },
{ "type": "Feature", "properties": { "link_id": "10001", "@assumSpeedOncom": "60", "@consVehInDynPot": "false", "@costPerKm": "0", "@desSpeedFact": "1", "@direction": "ALL", "@displayType": "1", "@emergStopDist": "5", "@gradient": "0", "@hasOvtLn": "false", "@isPedArea": "false", "@level": null, "@linkBehavType": "1", "@linkEvalAct": "true", "@linkEvalSegLen": "10", "@lnChgDist": "200", "@lnChgDistIsPerLn": "false", "@lnChgEvalAct": "true", "@lookAheadDistOvt": "500", "@mesoFollowUpGap": "0", "@mesoSpeed": "50", "@mesoSpeedModel": "VEHICLEBASED", "@name": "", "@netPerfEvalAct": "true", "@no": "10001", "@ovtOnlyPT": "false", "@ovtSpeedFact": "1.3", "@showClsfValues": "true", "@showLinkBar": "true", "@showVeh": "true", "@surch1": "0", "@surch2": "0", "@thickness": "0", "@vehDynPotG": "3", "@vehRecAct": "true", "geom_points": "[(-87.88784328138834, 43.077625716952184), (-87.88783637836714, 43.077625967893624), (-87.88782923876683, 43.07762667864345), (-87.88782195548542, 43.07762782742906), (-87.88781462142097, 43.07762939247791), (-87.88780732947153, 43.0776313520174), (-87.88780017253508, 43.077633684274964), (-87.88779324350972, 43.077636367478014), (-87.88778663529345, 43.07763937985395), (-87.88778044078431, 43.07764269963021), (-87.88777475288035, 43.07764630503412), (-87.88776966447959, 43.07765017429317), (-87.88776526848005, 43.077654285634736), (-87.88776165777979, 43.077658617286225), (-87.88775892527686, 43.077663147475086), (-87.88775716386928, 43.07766785442872), (-87.88775644900169, 43.07767335663016)]", "num_lanes": null, "fromLinkEndPt": { "@lane": "4 1", "@pos": "45.057831717080141" }, "toLinkEndPt": { "@lane": "1 1", "@pos": "50.685830728456892" } }, "geometry": { "type": "LineString", "coordinates": [ [ -87.887843281388342, 43.077625716952184 ], [ -87.88783637836714, 43.077625967893624 ], [ -87.887829238766827, 43.077626678643448 ], [ -87.887821955485421, 43.077627827429062 ], [ -87.887814621420972, 43.07762939247791 ], [ -87.887807329471528, 43.077631352017399 ], [ -87.88780017253508, 43.077633684274964 ], [ -87.887793243509719, 43.077636367478014 ], [ -87.887786635293452, 43.077639379853949 ], [ -87.887780440784312, 43.077642699630211 ], [ -87.887774752880347, 43.077646305034122 ], [ -87.887769664479592, 43.077650174293169 ], [ -87.887765268480052, 43.077654285634736 ], [ -87.887761657779791, 43.077658617286225 ], [ -87.887758925276856, 43.077663147475086 ], [ -87.887757163869281, 43.077667854428718 ], [ -87.887756449001685, 43.077673356630157 ] ] } },
{ "type": "Feature", "properties": { "link_id": "10002", "@assumSpeedOncom": "60", "@consVehInDynPot": "false", "@costPerKm": "0", "@desSpeedFact": "1", "@direction": "ALL", "@displayType": "1", "@emergStopDist": "5", "@gradient": "0", "@hasOvtLn": "false", "@isPedArea": "false", "@level": null, "@linkBehavType": "1", "@linkEvalAct": "true", "@linkEvalSegLen": "10", "@lnChgDist": "200", "@lnChgDistIsPerLn": "false", "@lnChgEvalAct": "true", "@lookAheadDistOvt": "500", "@mesoFollowUpGap": "0", "@mesoSpeed": "50", "@mesoSpeedModel": "VEHICLEBASED", "@name": "", "@netPerfEvalAct": "true", "@no": "10002", "@ovtOnlyPT": "false", "@ovtSpeedFact": "1.3", "@showClsfValues": "true", "@showLinkBar": "true", "@showVeh": "true", "@surch1": "0", "@surch2": "0", "@thickness": "0", "@vehDynPotG": "3", "@vehRecAct": "true", "geom_points": "[(-87.88771306372034, 43.077652962203565), (-87.88771999107007, 43.07765265122091), (-87.88772704334623, 43.077651770769634), (-87.88773414285536, 43.077650357733845), (-87.88774121190403, 43.07764844899774), (-87.88774817279887, 43.07764608144546), (-87.8877549478464, 43.07764329196112), (-87.88776145935326, 43.07764011742886), (-87.88776762962598, 43.077636594732795), (-87.88777338097118, 43.077632760757076), (-87.8877786356954, 43.07762865238581), (-87.88778331610524, 43.0776243065032), (-87.8877873445073, 43.07761975999336), (-87.88779064320812, 43.07761504974042), (-87.88779313451431, 43.07761021262861), (-87.88779474073243, 43.07760528554208), (-87.8877953667157, 43.0776009456214)]", "num_lanes": null, "fromLinkEndPt": { "@lane": "3 1", "@pos": "90.255552705289475" }, "toLinkEndPt": { "@lane": "2 1", "@pos": "77.376773060995561" } }, "geometry": { "type": "LineString", "coordinates": [ [ -87.887713063720341, 43.077652962203565 ], [ -87.887719991070071, 43.077652651220909 ], [ -87.887727043346231, 43.077651770769634 ], [ -87.887734142855365, 43.077650357733845 ], [ -87.887741211904029, 43.077648448997742 ], [ -87.887748172798865, 43.077646081445458 ], [ -87.887754947846403, 43.077643291961117 ], [ -87.887761459353257, 43.077640117428857 ], [ -87.887767629625984, 43.077636594732795 ], [ -87.887773380971183, 43.077632760757076 ], [ -87.887778635695398, 43.077628652385812 ], [ -87.887783316105242, 43.077624306503203 ], [ -87.887787344507302, 43.077619759993361 ], [ -87.88779064320812, 43.077615049740423 ], [ -87.887793134514311, 43.077610212628613 ], [ -87.887794740732431, 43.077605285542077 ], [ -87.887795366715693, 43.077600945621398 ] ] } },
{ "type": "Feature", "properties": { "link_id": "10003", "@assumSpeedOncom": "60", "@consVehInDynPot": "false", "@costPerKm": "0", "@desSpeedFact": "1", "@direction": "ALL", "@displayType": "1", "@emergStopDist": "5", "@gradient": "0", "@hasOvtLn": "false", "@isPedArea": "false", "@level": null, "@linkBehavType": "1", "@linkEvalAct": "true", "@linkEvalSegLen": "10", "@lnChgDist": "200", "@lnChgDistIsPerLn": "false", "@lnChgEvalAct": "true", "@lookAheadDistOvt": "500", "@mesoFollowUpGap": "0", "@mesoSpeed": "50", "@mesoSpeedModel": "VEHICLEBASED", "@name": "", "@netPerfEvalAct": "true", "@no": "10003", "@ovtOnlyPT": "false", "@ovtSpeedFact": "1.3", "@showClsfValues": "true", "@showLinkBar": "true", "@showVeh": "true", "@surch1": "0", "@surch2": "0", "@thickness": "0", "@vehDynPotG": "3", "@vehRecAct": "true", "geom_points": "[(-87.88779335888091, 43.07767460055593), (-87.88779286776852, 43.07766950896324), (-87.88779118317365, 43.07766459093497), (-87.8877884111113, 43.077659867976735), (-87.88778465759657, 43.07765536159402), (-87.88778002864453, 43.07765109329243), (-87.8877746302703, 43.07764708457749), (-87.88776856848888, 43.07764335695484), (-87.88776194931539, 43.07763993192997), (-87.8877548787649, 43.07763683100847), (-87.88774746285247, 43.07763407569593), (-87.8877398075932, 43.07763168749793), (-87.88773201900216, 43.077629687919995), (-87.88772420309442, 43.07762809846766), (-87.88771646588506, 43.07762694064655), (-87.88770891338913, 43.07762623596217), (-87.88770252851042, 43.07762600413093)]", "num_lanes": null, "fromLinkEndPt": { "@lane": "2 1", "@pos": "69.185038460473848" }, "toLinkEndPt": { "@lane": "4 1", "@pos": "56.489901739778979" } }, "geometry": { "type": "LineString", "coordinates": [ [ -87.887793358880913, 43.07767460055593 ], [ -87.887792867768525, 43.07766950896324 ], [ -87.887791183173647, 43.077664590934972 ], [ -87.887788411111302, 43.077659867976735 ], [ -87.887784657596569, 43.077655361594019 ], [ -87.887780028644528, 43.077651093292431 ], [ -87.8877746302703, 43.077647084577492 ], [ -87.88776856848888, 43.077643356954837 ], [ -87.88776194931539, 43.077639931929973 ], [ -87.887754878764895, 43.077636831008469 ], [ -87.887747462852474, 43.077634075695933 ], [ -87.887739807593206, 43.077631687497927 ], [ -87.887732019002158, 43.077629687919995 ], [ -87.887724203094422, 43.077628098467663 ], [ -87.887716465885063, 43.077626940646553 ], [ -87.887708913389133, 43.077626235962171 ], [ -87.887702528510417, 43.077626004130927 ] ] } },
{ "type": "Feature", "properties": { "link_id": "10004", "@assumSpeedOncom": "60", "@consVehInDynPot": "false", "@costPerKm": "0", "@desSpeedFact": "1", "@direction": "ALL", "@displayType": "1", "@emergStopDist": "5", "@gradient": "0", "@hasOvtLn": "false", "@isPedArea": "false", "@level": null, "@linkBehavType": "1", "@linkEvalAct": "true", "@linkEvalSegLen": "10", "@lnChgDist": "200", "@lnChgDistIsPerLn": "false", "@lnChgEvalAct": "true", "@lookAheadDistOvt": "500", "@mesoFollowUpGap": "0", "@mesoSpeed": "50", "@mesoSpeedModel": "VEHICLEBASED", "@name": "", "@netPerfEvalAct": "true", "@no": "10004", "@ovtOnlyPT": "false", "@ovtSpeedFact": "1.3", "@showClsfValues": "true", "@showLinkBar": "true", "@showVeh": "true", "@surch1": "0", "@surch2": "0", "@thickness": "0", "@vehDynPotG": "3", "@vehRecAct": "true", "geom_points": "[(-87.8878431612203, 43.077625717197364), (-87.88783931436743, 43.077625584214), (-87.88783533316479, 43.0776251794032), (-87.88783127106191, 43.07762451700002), (-87.88782718150836, 43.077623611239495), (-87.88782311795362, 43.077622476356616), (-87.88781913384724, 43.077621126586486), (-87.88781528263878, 43.07761957616407), (-87.88781161777773, 43.077617839324375), (-87.88780819271362, 43.07761593030246), (-87.88780506089599, 43.07761386333335), (-87.88780227577439, 43.07761165265205), (-87.88779989079835, 43.07760931249363), (-87.88779795941736, 43.07760685709307), (-87.88779653508097, 43.0776043006854), (-87.88779567123873, 43.07760165750569), (-87.88779545507309, 43.077597704337634)]", "num_lanes": null, "fromLinkEndPt": { "@lane": "4 1", "@pos": "45.067591868745765" }, "toLinkEndPt": { "@lane": "2 1", "@pos": "77.737261056347251" } }, "geometry": { "type": "LineString", "coordinates": [ [ -87.887843161220303, 43.077625717197364 ], [ -87.887839314367426, 43.077625584213997 ], [ -87.887835333164787, 43.077625179403199 ], [ -87.887831271061913, 43.077624517000018 ], [ -87.887827181508356, 43.077623611239495 ], [ -87.887823117953616, 43.077622476356616 ], [ -87.887819133847245, 43.077621126586486 ], [ -87.887815282638783, 43.077619576164068 ], [ -87.887811617777729, 43.077617839324375 ], [ -87.887808192713621, 43.077615930302457 ], [ -87.887805060895985, 43.077613863333347 ], [ -87.887802275774391, 43.077611652652052 ], [ -87.887799890798348, 43.077609312493628 ], [ -87.887797959417355, 43.077606857093073 ], [ -87.887796535080966, 43.077604300685401 ], [ -87.887795671238734, 43.077601657505689 ], [ -87.887795455073089, 43.077597704337634 ] ] } },
{ "type": "Feature", "properties": { "link_id": "10005", "@assumSpeedOncom": "60", "@consVehInDynPot": "false", "@costPerKm": "0", "@desSpeedFact": "1", "@direction": "ALL", "@displayType": "1", "@emergStopDist": "5", "@gradient": "0", "@hasOvtLn": "false", "@isPedArea": "false", "@level": null, "@linkBehavType": "1", "@linkEvalAct": "true", "@linkEvalSegLen": "10", "@lnChgDist": "200", "@lnChgDistIsPerLn": "false", "@lnChgEvalAct": "true", "@lookAheadDistOvt": "500", "@mesoFollowUpGap": "0", "@mesoSpeed": "50", "@mesoSpeedModel": "VEHICLEBASED", "@name": "", "@netPerfEvalAct": "true", "@no": "10005", "@ovtOnlyPT": "false", "@ovtSpeedFact": "1.3", "@showClsfValues": "true", "@showLinkBar": "true", "@showVeh": "true", "@surch1": "0", "@surch2": "0", "@thickness": "0", "@vehDynPotG": "3", "@vehRecAct": "true", "geom_points": "[(-87.88775826452638, 43.07760675635577), (-87.88775777759817, 43.07760952449045), (-87.88775652487674, 43.077612028670075), (-87.88775458096258, 43.077614280745856), (-87.88775202045615, 43.07761629256903), (-87.8877489179579, 43.07761807599069), (-87.88774534806839, 43.07761964286208), (-87.88774138538803, 43.07762100503434), (-87.88773710451733, 43.07762217435865), (-87.88773258005679, 43.077623162686145), (-87.88772788660685, 43.07762398186803), (-87.88772309876802, 43.077624643755456), (-87.88771829114079, 43.077625160199545), (-87.88771353832561, 43.07762554305151), (-87.887708914923, 43.07762580416248), (-87.88770449553337, 43.07762595538361), (-87.88769979276476, 43.077626009712674)]", "num_lanes": null, "fromLinkEndPt": { "@lane": "1 1", "@pos": "43.278699138340464" }, "toLinkEndPt": { "@lane": "4 1", "@pos": "56.712101360556375" } }, "geometry": { "type": "LineString", "coordinates": [ [ -87.887758264526383, 43.07760675635577 ], [ -87.887757777598168, 43.077609524490448 ], [ -87.887756524876735, 43.077612028670075 ], [ -87.887754580962579, 43.077614280745856 ], [ -87.887752020456148, 43.077616292569033 ], [ -87.887748917957893, 43.077618075990692 ], [ -87.887745348068393, 43.077619642862082 ], [ -87.887741385388026, 43.077621005034338 ], [ -87.887737104517328, 43.077622174358652 ], [ -87.887732580056792, 43.077623162686145 ], [ -87.887727886606854, 43.07762398186803 ], [ -87.887723098768021, 43.077624643755456 ], [ -87.887718291140786, 43.077625160199545 ], [ -87.887713538325613, 43.077625543051511 ], [ -87.887708914922996, 43.07762580416248 ], [ -87.88770449553337, 43.07762595538361 ], [ -87.887699792764764, 43.077626009712674 ] ] } },
{ "type": "Feature", "properties": { "link_id": "10006", "@assumSpeedOncom": "60", "@consVehInDynPot": "false", "@costPerKm": "0", "@desSpeedFact": "1", "@direction": "ALL", "@displayType": "1", "@emergStopDist": "5", "@gradient": "0", "@hasOvtLn": "false", "@isPedArea": "false", "@level": null, "@linkBehavType": "1", "@linkEvalAct": "true", "@linkEvalSegLen": "10", "@lnChgDist": "200", "@lnChgDistIsPerLn": "false", "@lnChgEvalAct": "true", "@lookAheadDistOvt": "500", "@mesoFollowUpGap": "0", "@mesoSpeed": "50", "@mesoSpeedModel": "VEHICLEBASED", "@name": "", "@netPerfEvalAct": "true", "@no": "10006", "@ovtOnlyPT": "false", "@ovtSpeedFact": "1.3", "@showClsfValues": "true", "@showLinkBar": "true", "@showVeh": "true", "@surch1": "0", "@surch2": "0", "@thickness": "0", "@vehDynPotG": "3", "@vehRecAct": "true", "geom_points": "[(-87.88779332540129, 43.07767582871346), (-87.88779385697755, 43.077672718891236), (-87.8877952214801, 43.07766986976076), (-87.88779733877892, 43.0776672729545), (-87.88780012874403, 43.077664920104795), (-87.88780351124542, 43.077662802844124), (-87.88780740615316, 43.077660912804824), (-87.88781173333717, 43.07765924161931), (-87.88781641266749, 43.077657780920035), (-87.88782136401413, 43.07765652233933), (-87.8878265072471, 43.07765545750962), (-87.8878317622364, 43.077654578063274), (-87.88783704885202, 43.077653875632684), (-87.887842286964, 43.077653341850244), (-87.8878473964423, 43.07765296834832), (-87.88785229715697, 43.077652746759306), (-87.88785690819418, 43.07765266871714)]", "num_lanes": null, "fromLinkEndPt": { "@lane": "2 1", "@pos": "69.048445484435618" }, "toLinkEndPt": { "@lane": "3 1", "@pos": "101.93872481174947" } }, "geometry": { "type": "LineString", "coordinates": [ [ -87.88779332540129, 43.07767582871346 ], [ -87.887793856977552, 43.077672718891236 ], [ -87.887795221480104, 43.077669869760761 ], [ -87.887797338778924, 43.0776672729545 ], [ -87.887800128744033, 43.077664920104795 ], [ -87.887803511245423, 43.077662802844124 ], [ -87.887807406153158, 43.077660912804824 ], [ -87.887811733337173, 43.077659241619308 ], [ -87.88781641266749, 43.077657780920035 ], [ -87.88782136401413, 43.077656522339332 ], [ -87.887826507247098, 43.077655457509621 ], [ -87.887831762236402, 43.077654578063274 ], [ -87.88783704885202, 43.077653875632684 ], [ -87.887842286964002, 43.077653341850244 ], [ -87.887847396442297, 43.077652968348318 ], [ -87.887852297156968, 43.077652746759306 ], [ -87.887856908194181, 43.077652668717143 ] ] } },
{ "type": "Feature", "properties": { "link_id": "10007", "@assumSpeedOncom": "60", "@consVehInDynPot": "false", "@costPerKm": "0", "@desSpeedFact": "1", "@direction": "ALL", "@displayType": "1", "@emergStopDist": "5", "@gradient": "0", "@hasOvtLn": "false", "@isPedArea": "false", "@level": null, "@linkBehavType": "1", "@linkEvalAct": "true", "@linkEvalSegLen": "10", "@lnChgDist": "200", "@lnChgDistIsPerLn": "false", "@lnChgEvalAct": "true", "@lookAheadDistOvt": "500", "@mesoFollowUpGap": "0", "@mesoSpeed": "50", "@mesoSpeedModel": "VEHICLEBASED", "@name": "", "@netPerfEvalAct": "true", "@no": "10007", "@ovtOnlyPT": "false", "@ovtSpeedFact": "1.3", "@showClsfValues": "true", "@showLinkBar": "true", "@showVeh": "true", "@surch1": "0", "@surch2": "0", "@thickness": "0", "@vehDynPotG": "3", "@vehRecAct": "true", "geom_points": "[(-87.88771352014335, 43.07765296127232), (-87.88771714507732, 43.0776531136298), (-87.88772084384428, 43.077653571743156), (-87.88772457335386, 43.07765431529979), (-87.88772829051564, 43.07765532398714), (-87.88773195223922, 43.07765657749254), (-87.8877355154342, 43.0776580555034), (-87.88773893701016, 43.077659737707144), (-87.88774217387672, 43.077661603791114), (-87.88774518294346, 43.077663633442775), (-87.88774792111998, 43.07766580634944), (-87.8877503453159, 43.07766810219856), (-87.88775241244076, 43.07767050067752), (-87.88775407940425, 43.07767298147373), (-87.88775530311588, 43.07767552427458), (-87.88775604048529, 43.077678108767465), (-87.88775624283699, 43.07768091952157)]", "num_lanes": null, "fromLinkEndPt": { "@lane": "3 1", "@pos": "90.292623774620353" }, "toLinkEndPt": { "@lane": "1 1", "@pos": "51.526958881649712" } }, "geometry": { "type": "LineString", "coordinates": [ [ -87.88771352014335, 43.077652961272321 ], [ -87.887717145077318, 43.0776531136298 ], [ -87.887720843844278, 43.077653571743156 ], [ -87.887724573353864, 43.077654315299789 ], [ -87.887728290515639, 43.077655323987138 ], [ -87.887731952239221, 43.07765657749254 ], [ -87.887735515434201, 43.077658055503399 ], [ -87.887738937010155, 43.077659737707144 ], [ -87.887742173876717, 43.077661603791114 ], [ -87.887745182943462, 43.077663633442775 ], [ -87.887747921119981, 43.077665806349437 ], [ -87.887750345315894, 43.077668102198558 ], [ -87.887752412440761, 43.07767050067752 ], [ -87.887754079404246, 43.077672981473732 ], [ -87.887755303115881, 43.077675524274582 ], [ -87.887756040485286, 43.077678108767465 ], [ -87.887756242836986, 43.077680919521569 ] ] } }
]
}
