{
"type": "FeatureCollection",
"name": "xl_002_001.inpx",
"crs": { "type": "name", "properties": { "name": "urn:ogc:def:crs:OGC:1.3:CRS84" } },
"features": [
{ "type": "Feature", "properties": { "link_id": "1", "assumSpeedOncom": "60", "consVehInDynPot": "false", "costPerKm": "0", "desSpeedFact": "1", "direction": "ALL", "displayType": "1", "emergStopDist": "5", "gradient": "0", "hasOvtLn": "false", "isPedArea": "false", "level": "1", "linkBehavType": "1", "linkEvalAct": "true", "linkEvalSegLen": "10", "lnChgDist": "200", "lnChgDistIsPerLn": "false", "lnChgEvalAct": "true", "lookAheadDistOvt": "500", "mesoFollowUpGap": "0", "mesoSpeed": "50", "mesoSpeedModel": "VEHICLEBASED", "name": "", "netPerfEvalAct": "true", "no": "1", "ovtOnlyPT": "false", "ovtSpeedFact": "1.3", "showClsfValues": "true", "showLinkBar": "true", "showVeh": "true", "surch1": "0", "surch2": "0", "thickness": "0", "vehDynPotG": "3", "vehRecAct": "true", "num_lanes": 1 }, "geometry": { "type": "LineString", "coordinates": [ [ -87.888821099591894, 43.077620832979157 ], [ -87.88880397732801, 43.078248938994996 ], [ -87.888791699185489, 43.078699341311598 ] ] } },
{ "type": "Feature", "properties": { "link_id": "2", "assumSpeedOncom": "60", "consVehInDynPot": "false", "costPerKm": "0", "desSpeedFact": "1", "direction": "ALL", "displayType": "1", "emergStopDist": "5", "gradient": "0", "hasOvtLn": "false", "isPedArea": "false", "level": "1", "linkBehavType": "1", "linkEvalAct": "true", "linkEvalSegLen": "10", "lnChgDist": "200", "lnChgDistIsPerLn": "false", "lnChgEvalAct": "true", "lookAheadDistOvt": "500", "mesoFollowUpGap": "0", "mesoSpeed": "50", "mesoSpeedModel": "VEHICLEBASED", "name": "", "netPerfEvalAct": "true", "no": "2", "ovtOnlyPT": "false", "ovtSpeedFact": "1.3", "showClsfValues": "true", "showLinkBar": "true", "showVeh": "true", "surch1": "0", "surch2": "0", "thickness": "0", "vehDynPotG": "3", "vehRecAct": "true", "num_lanes": 1 }, "geometry": { "type": "LineString", "coordinates": [ [ -87.888828628575936, 43.078699878401054 ], [ -87.888840906718471, 43.078249476088423 ], [ -87.888858028982355, 43.077621370078077 ] ] } },
{ "type": "Feature", "properties": { "link_id": "3", "assumSpeedOncom": "60", "consVehInDynPot": "false", "costPerKm": "0", "desSpeedFact": "1", "direction": "ALL", "displayType": "1", "emergStopDist": "5", "gradient": "0", "hasOvtLn": "false", "isPedArea": "false", "level": "1", "linkBehavType": "1", "linkEvalAct": "true", "linkEvalSegLen": "10", "lnChgDist": "200", "lnChgDistIsPerLn": "false", "lnChgEvalAct": "true", "lookAheadDistOvt": "500", "mesoFollowUpGap": "0", "mesoSpeed": "50", "mesoSpeedModel": "VEHICLEBASED", "name": "", "netPerfEvalAct": "true", "no": "3", "ovtOnlyPT": "false", "ovtSpeedFact": "1.3", "showClsfValues": "true", "showLinkBar": "true", "showVeh": "true", "surch1": "0", "surch2": "0", "thickness": "0", "vehDynPotG": "3", "vehRecAct": "true", "num_lanes": 1 }, "geometry": { "type": "LineString", "coordinates": [ [ -87.887654047192527, 43.078058442409713 ], [ -87.889450372823958, 43.07805477738404 ] ] } },
{ "type": "Feature", "properties": { "link_id": "4", "assumSpeedOncom": "60", "consVehInDynPot": "false", "costPerKm": "0", "desSpeedFact": "1", "direction": "ALL", "displayType": "1", "emergStopDist": "5", "gradient": "0", "hasOvtLn": "false", "isPedArea": "false", "level": "1", "linkBehavType": "1", "linkEvalAct": "true", "linkEvalSegLen": "10", "lnChgDist": "200", "lnChgDistIsPerLn": "false", "lnChgEvalAct": "true", "lookAheadDistOvt": "500", "mesoFollowUpGap": "0", "mesoSpeed": "50", "mesoSpeedModel": "VEHICLEBASED", "name": "", "netPerfEvalAct": "true", "no": "4", "ovtOnlyPT": "false", "ovtSpeedFact": "1.3", "showClsfValues": "true", "showLinkBar": "true", "showVeh": "true", "surch1": "0", "surch2": "0", "thickness": "0", "vehDynPotG": "3", "vehRecAct": "true", "num_lanes": 1 }, "geometry": { "type": "LineString", "coordinates": [ [ -87.889450269649188, 43.078027798026262 ], [ -87.887653944017757, 43.07803146305352 ] ] } },
{ "type": "Feature", "properties": { "link_id": "10000", "assumSpeedOncom": "60", "consVehInDynPot": "false", "costPerKm": "0", "desSpeedFact": "1", "direction": "ALL", "displayType": "1", "emergStopDist": "5", "gradient": "0", "hasOvtLn": "false", "isPedArea": "false", "level": null, "linkBehavType": "1", "linkEvalAct": "true", "linkEvalSegLen": "10", "lnChgDist": "200", "lnChgDistIsPerLn": "false", "lnChgEvalAct": "true", "lookAheadDistOvt": "500", "mesoFollowUpGap": "0", "mesoSpeed": "50", "mesoSpeedModel": "VEHICLEBASED", "name": "", "netPerfEvalAct": "true", "no": "10000", "ovtOnlyPT": "false", "ovtSpeedFact": "1.3", "showClsfValues": "true", "showLinkBar": "true", "showVeh": "true", "surch1": "0", "surch2": "0", "thickness": "0", "vehDynPotG": "3", "vehRecAct": "true", "num_lanes": 1 }, "geometry": { "type": "LineString", "coordinates": [ ] } },
{ "type": "Feature", "properties": { "link_id": "10001", "assumSpeedOncom": "60", "consVehInDynPot": "false", "costPerKm": "0", "desSpeedFact": "1", "direction": "ALL", "displayType": "1", "emergStopDist": "5", "gradient": "0", "hasOvtLn": "false", "isPedArea": "false", "level": null, "linkBehavType": "1", "linkEvalAct": "true", "linkEvalSegLen": "10", "lnChgDist": "200", "lnChgDistIsPerLn": "false", "lnChgEvalAct": "true", "lookAheadDistOvt": "500", "mesoFollowUpGap": "0", "mesoSpeed": "50", "mesoSpeedModel": "VEHICLEBASED", "name": "", "netPerfEvalAct": "true", "no": "10001", "ovtOnlyPT": "false", "ovtSpeedFact": "1.3", "showClsfValues": "true", "showLinkBar": "true", "showVeh": "true", "surch1": "0", "surch2": "0", "thickness": "0", "vehDynPotG": "3", "vehRecAct": "true", "num_lanes": 1 }, "geometry": { "type": "LineString", "coordinates": [ ] } },
{ "type": "Feature", "properties": { "link_id": "10002", "assumSpeedOncom": "60", "consVehInDynPot": "false", "costPerKm": "0", "desSpeedFact": "1", "direction": "ALL", "displayType": "1", "emergStopDist": "5", "gradient": "0", "hasOvtLn": "false", "isPedArea": "false", "level": null, "linkBehavType": "1", "linkEvalAct": "true", "linkEvalSegLen": "10", "lnChgDist": "200", "lnChgDistIsPerLn": "false", "lnChgEvalAct": "true", "lookAheadDistOvt": "500", "mesoFollowUpGap": "0", "mesoSpeed": "50", "mesoSpeedModel": "VEHICLEBASED", "name": "", "netPerfEvalAct": "true", "no": "10002", "ovtOnlyPT": "false", "ovtSpeedFact": "1.3", "showClsfValues": "true", "showLinkBar": "true", "showVeh": "true", "surch1": "0", "surch2": "0", "thickness": "0", "vehDynPotG": "3", "vehRecAct": "true", "num_lanes": 1 }, "geometry": { "type": "LineString", "coordinates": [ ] } },
{ "type": "Feature", "properties": { "link_id": "10003", "assumSpeedOncom": "60", "consVehInDynPot": "false", "costPerKm": "0", "desSpeedFact": "1", "direction": "ALL", "displayType": "1", "emergStopDist": "5", "gradient": "0", "hasOvtLn": "false", "isPedArea": "false", "level": null, "linkBehavType": "1", "linkEvalAct": "true", "linkEvalSegLen": "10", "lnChgDist": "200", "lnChgDistIsPerLn": "false", "lnChgEvalAct": "true", "lookAheadDistOvt": "500", "mesoFollowUpGap": "0", "mesoSpeed": "50", "mesoSpeedModel": "VEHICLEBASED", "name": "", "netPerfEvalAct": "true", "no": "10003", "ovtOnlyPT": "false", "ovtSpeedFact": "1.3", "showClsfValues": "true", "showLinkBar": "true", "showVeh": "true", "surch1": "0", "surch2": "0", "thickness": "0", "vehDynPotG": "3", "vehRecAct": "true", "num_lanes": 1 }, "geometry": { "type": "LineString", "coordinates": [ ] } },
{ "type": "Feature", "properties": { "link_id": "10004", "assumSpeedOncom": "60", "consVehInDynPot": "false", "costPerKm": "0", "desSpeedFact": "1", "direction": "ALL", "displayType": "1", "emergStopDist": "5", "gradient": "0", "hasOvtLn": "false", "isPedArea": "false", "level": null, "linkBehavType": "1", "linkEvalAct": "true", "linkEvalSegLen": "10", "lnChgDist": "200", "lnChgDistIsPerLn": "false", "lnChgEvalAct": "true", "lookAheadDistOvt": "500", "mesoFollowUpGap": "0", "mesoSpeed": "50", "mesoSpeedModel": "VEHICLEBASED", "name": "", "netPerfEvalAct": "true", "no": "10004", "ovtOnlyPT": "false", "ovtSpeedFact": "1.3", "showClsfValues": "true", "showLinkBar": "true", "showVeh": "true", "surch1": "0", "surch2": "0", "thickness": "0", "vehDynPotG": "3", "vehRecAct": "true", "num_lanes": 1 }, "geometry": { "type": "LineString", "coordinates": [ ] } },
{ "type": "Feature", "properties": { "link_id": "10005", "assumSpeedOncom": "60", "consVehInDynPot": "false", "costPerKm": "0", "desSpeedFact": "1", "direction": "ALL", "displayType": "1", "emergStopDist": "5", "gradient": "0", "hasOvtLn": "false", "isPedArea": "false", "level": null, "linkBehavType": "1", "linkEvalAct": "true", "linkEvalSegLen": "10", "lnChgDist": "200", "lnChgDistIsPerLn": "false", "lnChgEvalAct": "true", "lookAheadDistOvt": "500", "mesoFollowUpGap": "0", "mesoSpeed": "50", "mesoSpeedModel": "VEHICLEBASED", "name": "", "netPerfEvalAct": "true", "no": "10005", "ovtOnlyPT": "false", "ovtSpeedFact": "1.3", "showClsfValues": "true", "showLinkBar": "true", "showVeh": "true", "surch1": "0", "surch2": "0", "thickness": "0", "vehDynPotG": "3", "vehRecAct": "true", "num_lanes": 1 }, "geometry": { "type": "LineString", "coordinates": [ ] } },
{ "type": "Feature", "properties": { "link_id": "10006", "assumSpeedOncom": "60", "consVehInDynPot": "false", "costPerKm": "0", "desSpeedFact": "1", "direction": "ALL", "displayType": "1", "emergStopDist": "5", "gradient": "0", "hasOvtLn": "false", "isPedArea": "false", "level": null, "linkBehavType": "1", "linkEvalAct": "true", "linkEvalSegLen": "10", "lnChgDist": "200", "lnChgDistIsPerLn": "false", "lnChgEvalAct": "true", "lookAheadDistOvt": "500", "mesoFollowUpGap": "0", "mesoSpeed": "50", "mesoSpeedModel": "VEHICLEBASED", "name": "", "netPerfEvalAct": "true", "no": "10006", "ovtOnlyPT": "false", "ovtSpeedFact": "1.3", "showClsfValues": "true", "showLinkBar": "true", "showVeh": "true", "surch1": "0", "surch2": "0", "thickness": "0", "vehDynPotG": "3", "vehRecAct": "true", "num_lanes": 1 }, "geometry": { "type": "LineString", "coordinates": [ ] } },
{ "type": "Feature", "properties": { "link_id": "10007", "assumSpeedOncom": "60", "consVehInDynPot": "false", "costPerKm": "0", "desSpeedFact": "1", "direction": "ALL", "displayType": "1", "emergStopDist": "5", "gradient": "0", "hasOvtLn": "false", "isPedArea": "false", "level": null, "linkBehavType": "1", "linkEvalAct": "true", "linkEvalSegLen": "10", "lnChgDist": "200", "lnChgDistIsPerLn": "false", "lnChgEvalAct": "true", "lookAheadDistOvt": "500", "mesoFollowUpGap": "0", "mesoSpeed": "50", "mesoSpeedModel": "VEHICLEBASED", "name": "", "netPerfEvalAct": "true", "no": "10007", "ovtOnlyPT": "false", "ovtSpeedFact": "1.3", "showClsfValues": "true", "showLinkBar": "true", "showVeh": "true", "surch1": "0", "surch2": "0", "thickness": "0", "vehDynPotG": "3", "vehRecAct": "true", "num_lanes": 1 }, "geometry": { "type": "LineString", "coordinates": [ ] } }
]
}
